[{"OBJECT_NAME":"STARLINK-3768","OBJECT_ID":"2022-041AS","EPOCH":"2026-03-09T09:51:57.857184","MEAN_MOTION":15.08840631,"ECCENTRICITY":0.00012203,"INCLINATION":53.2172,"RA_OF_ASC_NODE":100.3703,"ARG_OF_PERICENTER":96.9892,"MEAN_ANOMALY":263.1239,"EPHEMERIS_TYPE":0,"CLASSIFICATION_TYPE":"U","NORAD_CAT_ID":52301,"ELEMENT_SET_NO":999,"REV_AT_EPOCH":21446,"BSTAR":-1.5164675e-5,"MEAN_MOTION_DOT":-5.29e-6,"MEAN_MOTION_DDOT":0},{"OBJECT_NAME":"PSLV DEB","OBJECT_ID":"2001-049PF","EPOCH":"2026-02-25T09:35:51.227808","MEAN_MOTION":15.03011877,"ECCENTRICITY":0.00263657,"INCLINATION":98.0083,"RA_OF_ASC_NODE":118.9106,"ARG_OF_PERICENTER":265.6966,"MEAN_ANOMALY":94.1245,"EPHEMERIS_TYPE":0,"CLASSIFICATION_TYPE":"U","NORAD_CAT_ID":28853,"ELEMENT_SET_NO":999,"REV_AT_EPOCH":68879,"BSTAR":0.00037786861,"MEAN_MOTION_DOT":5.057e-5,"MEAN_MOTION_DDOT":0}]
